NORAD_CAT_ID,OBJECT_NAME,OBJECT_TYPE,EPOCH,MEAN_MOTION,ECCENTRICITY,INCLINATION,RA_OF_ASC_NODE,ARG_OF_PERICENTER,MEAN_ANOMALY,BSTAR,MEAN_MOTION_DOT,MEAN_MOTION_DDOT,TLE_LINE0,TLE_LINE1,TLE_LINE2,SEMIMAJOR_AXIS,PERIOD,APOGEE,PERIGEE,DECAYED
50187.0,STARLINK-3272,PAYLOAD,2023-10-06 08:23:50,15.0885684,0.0001505,53.2157,253.5638,105.8444,254.2714,0.00056454,8.712e-05,0.0,0 STARLINK-3272,1 50187U 21125AH  23279.34988462  .00008712  00000-0  56454-3 0  9994,2 50187  53.2157 253.5638 0001505 105.8444 254.2714 15.08856840103065,6917.829,95.436,540.735,538.653,0.0
50187.0,STARLINK-3272,PAYLOAD,2023-10-07 01:53:05,15.0884484,0.0001575,53.2158,250.2931,112.7069,247.409,0.00060909,9.42e-05,0.0,0 STARLINK-3272,1 50187U 21125AH  23280.07853104  .00009420  00000-0  60909-3 0  9997,2 50187  53.2158 250.2931 0001575 112.7069 247.4090 15.08844840100103,6917.866,95.437,540.82,538.641,0.0
50187.0,STARLINK-3272,PAYLOAD,2023-10-07 08:14:37,15.08845159,0.0001385,53.2163,249.104,95.3871,264.7279,0.00078617,0.00012248,0.0,0 STARLINK-3272,1 50187U 21125AH  23280.34349191  .00012248  00000-0  78617-3 0  9990,2 50187  53.2163 249.1040 0001385  95.3871 264.7279 15.08845159103213,6917.865,95.437,540.688,538.771,0.0
50187.0,STARLINK-3272,PAYLOAD,2023-10-07 20:57:43,15.08841208,0.0002002,53.2159,246.725,81.0532,279.0686,0.0009891,0.00015489,0.0,0 STARLINK-3272,1 50187U 21125AH  23280.87341606  .00015489  00000-0  98910-3 0  9999,2 50187  53.2159 246.7250 0002002  81.0532 279.0686 15.08841208100227,6917.877,95.437,541.127,538.357,0.0
50187.0,STARLINK-3272,PAYLOAD,2023-10-07 22:33:06,15.0883818,0.0001397,53.2152,246.4275,106.2783,253.8362,0.00072641,0.00011291,0.0,0 STARLINK-3272,1 50187U 21125AH  23280.93965392  .00011291  00000-0  72641-3 0  9990,2 50187  53.2152 246.4275 0001397 106.2783 253.8362 15.08838180103306,6917.886,95.438,540.717,538.785,0.0
50187.0,STARLINK-3272,PAYLOAD,2023-10-08 06:30:01,15.0886512,0.0001269,53.2153,244.9425,96.9154,263.1983,0.0017961,0.00028432,0.0,0 STARLINK-3272,1 50187U 21125AH  23281.27085127  .00028432  00000-0  17961-2 0  9995,2 50187  53.2153 244.9425 0001269  96.9154 263.1983 15.08865120100283,6917.804,95.436,540.546,538.791,0.0
50187.0,STARLINK-3272,PAYLOAD,2023-10-08 14:26:57,15.08862535,0.0001537,53.2157,243.4547,85.398,274.7188,0.00067655,0.00010502,0.0,0 STARLINK-3272,1 50187U 21125AH  23281.60205099  .00010502  00000-0  67655-3 0  9999,2 50187  53.2157 243.4547 0001537  85.3980 274.7188 15.08862535100331,6917.812,95.436,540.74,538.613,0.0
50187.0,STARLINK-3272,PAYLOAD,2023-10-09 03:10:02,15.08844899,0.0001673,53.2161,241.0753,86.4416,273.6768,0.00044298,6.77e-05,0.0,0 STARLINK-3272,1 50187U 21125AH  23282.13197242  .00006770  00000-0  44298-3 0  9998,2 50187  53.2161 241.0753 0001673  86.4416 273.6768 15.08844899100410,6917.865,95.437,540.888,538.573,0.0
50187.0,STARLINK-3272,PAYLOAD,2023-10-09 06:20:48,15.08856078,0.0001599,53.2153,240.4811,85.1661,274.9513,0.00082871,0.00012931,0.0,0 STARLINK-3272,1 50187U 21125AH  23282.26445046  .00012931  00000-0  82871-3 0  9995,2 50187  53.2153 240.4811 0001599  85.1661 274.9513 15.08856078103501,6917.831,95.437,540.802,538.59,0.0
50187.0,STARLINK-3272,PAYLOAD,2023-10-09 22:14:40,15.08837142,0.0001129,53.2147,237.5076,80.0704,280.0416,0.00052981,8.153e-05,0.0,0 STARLINK-3272,1 50187U 21125AH  23282.92685365  .00008153  00000-0  52981-3 0  9998,2 50187  53.2147 237.5076 0001129  80.0704 280.0416 15.08837142103607,6917.889,95.438,540.535,538.973,0.0
50187.0,STARLINK-3272,PAYLOAD,2023-10-10 03:00:49,15.08850827,0.0001479,53.2149,236.6163,84.0694,276.0466,0.0018643,0.00029516,0.0,0 STARLINK-3272,1 50187U 21125AH  23283.12557440  .00029516  00000-0  18643-2 0  9995,2 50187  53.2149 236.6163 0001479  84.0694 276.0466 15.08850827100563,6917.847,95.437,540.735,538.689,0.0
50187.0,STARLINK-3272,PAYLOAD,2023-10-10 06:11:35,15.08859744,0.0001364,53.2144,236.021,83.5452,276.5695,0.0024948,0.00039662,0.0,0 STARLINK-3272,1 50187U 21125AH  23283.25805277  .00039662  00000-0  24948-2 0  9991,2 50187  53.2144 236.0210 0001364  83.5452 276.5695 15.08859744103653,6917.82,95.436,540.629,538.741,0.0
50187.0,STARLINK-3272,PAYLOAD,2023-10-10 20:30:04,15.08849876,0.0002406,53.2145,233.3455,91.9618,268.165,0.0014435,0.00022767,0.0,0 STARLINK-3272,1 50187U 21125AH  23283.85421926  .00022767  00000-0  14435-2 0  9990,2 50187  53.2145 233.3455 0002406  91.9618 268.1650 15.08849876100672,6917.85,95.437,541.38,538.051,0.0
50187.0,STARLINK-3272,PAYLOAD,2023-10-11 13:59:19,15.08850072,0.0001693,53.2161,230.0733,87.1217,272.9968,0.001631,0.00025772,0.0,0 STARLINK-3272,1 50187U 21125AH  23284.58286230  .00025772  00000-0  16310-2 0  9991,2 50187  53.2161 230.0733 0001693  87.1217 272.9968 15.08850072103850,6917.85,95.437,540.886,538.543,0.0
50187.0,STARLINK-3272,PAYLOAD,2023-10-11 20:20:52,15.08854424,0.0002292,53.2154,228.8837,89.5342,270.5913,0.0018151,0.00028729,0.0,0 STARLINK-3272,1 50187U 21125AH  23284.84782430  .00028729  00000-0  18151-2 0  9993,2 50187  53.2154 228.8837 0002292  89.5342 270.5913 15.08854424100826,6917.836,95.437,541.287,538.116,0.0
50187.0,STARLINK-3272,PAYLOAD,2023-10-12 02:42:24,15.08850592,0.0001561,53.2154,227.693,102.9079,257.2087,0.0013317,0.00020976,0.0,0 STARLINK-3272,1 50187U 21125AH  23285.11278174  .00020976  00000-0  13317-2 0  9994,2 50187  53.2154 227.6930 0001561 102.9079 257.2087 15.08850592100862,6917.848,95.437,540.793,538.633,0.0
50187.0,STARLINK-3272,PAYLOAD,2023-10-12 13:50:06,15.08844052,0.000173,53.2167,225.6127,89.1088,271.0102,0.00070379,0.00010932,0.0,0 STARLINK-3272,1 50187U 21125AH  23285.57646456  .00010932  00000-0  70379-3 0  9999,2 50187  53.2167 225.6127 0001730  89.1088 271.0102 15.08844052104002,6917.868,95.437,540.93,538.536,0.0
50187.0,STARLINK-3272,PAYLOAD,2023-10-13 02:33:11,15.08855573,0.000161,53.2169,223.2344,88.6406,271.4771,0.0015927,0.00025162,0.0,0 STARLINK-3272,1 50187U 21125AH  23286.10638279  .00025162  00000-0  15927-2 0  9991,2 50187  53.2169 223.2344 0001610  88.6406 271.4771 15.08855573104088,6917.833,95.437,540.812,538.584,0.0
50187.0,STARLINK-3272,PAYLOAD,2023-10-13 20:02:25,15.08872171,0.000132,53.2162,219.9621,82.0859,278.0283,0.0022552,0.00035818,0.0,0 STARLINK-3272,1 50187U 21125AH  23286.83502027  .00035818  00000-0  22552-2 0  9993,2 50187  53.2162 219.9621 0001320  82.0859 278.0283 15.08872171101125,6917.782,95.436,540.56,538.734,0.0
50187.0,STARLINK-3272,PAYLOAD,2023-10-14 02:23:57,15.08869529,0.0001428,53.2172,218.7717,89.8228,270.2927,0.0011419,0.00017947,0.0,0 STARLINK-3272,1 50187U 21125AH  23287.09997516  .00017947  00000-0  11419-2 0  9996,2 50187  53.2172 218.7717 0001428  89.8228 270.2927 15.08869529101169,6917.79,95.436,540.643,538.667,0.0
50187.0,STARLINK-3272,PAYLOAD,2023-10-14 19:53:13,15.08837392,0.0001705,53.2177,215.5024,90.081,270.0377,0.00045846,7.015e-05,0.0,0 STARLINK-3272,1 50187U 21125AH  23287.82862392  .00007015  00000-0  45846-3 0  9997,2 50187  53.2177 215.5024 0001705  90.0810 270.0377 15.08837392101271,6917.888,95.438,540.933,538.574,0.0
50187.0,STARLINK-3272,PAYLOAD,2023-10-15 00:39:22,15.08819926,0.0001594,53.2178,214.6103,100.7835,259.3337,2.7986e-05,1.57e-06,0.0,0 STARLINK-3272,1 50187U 21125AH  23288.02734712  .00000157  00000-0  27986-4 0  9990,2 50187  53.2178 214.6103 0001594 100.7835 259.3337 15.08819926101305,6917.942,95.439,540.909,538.704,0.0
50187.0,STARLINK-3272,PAYLOAD,2023-10-15 11:47:05,15.08827105,0.0001383,53.2177,212.53,85.0528,275.0622,0.00076195,0.00011855,0.0,0 STARLINK-3272,1 50187U 21125AH  23288.49103407  .00011855  00000-0  76195-3 0  9994,2 50187  53.2177 212.5300 0001383  85.0528 275.0622 15.08827105104448,6917.92,95.438,540.742,538.828,0.0
50187.0,STARLINK-3272,PAYLOAD,2023-10-15 18:08:37,15.08837303,0.0001346,53.2176,211.3394,74.3127,285.8014,0.0010159,0.00015916,0.0,0 STARLINK-3272,1 50187U 21125AH  23288.75599530  .00015916  00000-0  10159-2 0  9998,2 50187  53.2176 211.3394 0001346  74.3127 285.8014 15.08837303104481,6917.889,95.438,540.685,538.822,0.0
50187.0,STARLINK-3272,PAYLOAD,2023-10-16 02:05:33,15.08865407,0.0001344,53.2171,209.8544,80.7929,279.3215,0.0017053,0.00026975,0.0,0 STARLINK-3272,1 50187U 21125AH  23289.08719056  .00026975  00000-0  17053-2 0  9999,2 50187  53.2171 209.8544 0001344  80.7929 279.3215 15.08865407101466,6917.803,95.436,540.597,538.738,0.0
50187.0,STARLINK-3272,PAYLOAD,2023-10-16 11:37:51,15.08863752,0.0001367,53.2164,208.0715,93.2922,266.8227,0.0008721,0.00013628,0.0,0 STARLINK-3272,1 50187U 21125AH  23289.48462734  .00013628  00000-0  87210-3 0  9995,2 50187  53.2164 208.0715 0001367  93.2922 266.8227 15.08863752101528,6917.808,95.436,540.618,538.727,0.0
50187.0,STARLINK-3272,PAYLOAD,2023-10-17 05:07:06,15.08860255,0.0002041,53.2158,204.7974,82.9261,277.1964,0.0008267,0.00012901,0.0,0 STARLINK-3272,1 50187U 21125AH  23290.21326392  .00012901  00000-0  82670-3 0  9995,2 50187  53.2158 204.7974 0002041  82.9261 277.1964 15.08860255101632,6917.818,95.436,541.095,538.272,0.0
50187.0,STARLINK-3272,PAYLOAD,2023-10-18 01:47:06,15.08854472,0.0001368,53.2154,200.9328,96.5161,263.5987,0.00062864,9.735e-05,0.0,0 STARLINK-3272,1 50187U 21125AH  23291.07438278  .00009735  00000-0  62864-3 0  9991,2 50187  53.2154 200.9328 0001368  96.5161 263.5987 15.08854472104833,6917.836,95.437,540.648,538.755,0.0
50187.0,STARLINK-3272,PAYLOAD,2023-10-18 11:19:25,15.08838458,0.0001184,53.2167,199.1476,96.2231,263.8896,0.0009105,0.00014232,0.0,0 STARLINK-3272,1 50187U 21125AH  23291.47182634  .00014232  00000-0  91050-3 0  9994,2 50187  53.2167 199.1476 0001184  96.2231 263.8896 15.08838458101825,6917.885,95.438,540.569,538.931,0.0
50187.0,STARLINK-3272,PAYLOAD,2023-10-19 01:37:54,15.08843386,0.000123,53.2167,196.4728,81.9224,278.1907,0.00063698,9.865e-05,0.0,0 STARLINK-3272,1 50187U 21125AH  23292.06798757  .00009865  00000-0  63698-3 0  9992,2 50187  53.2167 196.4728 0001230  81.9224 278.1907 15.08843386101918,6917.87,95.437,540.586,538.884,0.0
